SHIJIAN-16 (SJ-16)      
1 39358U 13057A   25333.32517218  .00001907  00000+0  19078-3 0  9993
2 39358  74.9742  15.0357 0017171 351.5262   8.5633 14.91930729656530
SL-4 R/B                
1 39679U 14021B   25333.08670949  .00013529  00000+0  32659-3 0  9998
2 39679  51.6069 106.9215 0103005  97.1022 264.1686 15.36153931640793
ALOS-2                  
1 39766U 14029A   25333.28407255  .00001866  00000+0  25650-3 0  9997
2 39766  97.9230  68.3214 0001369  99.9528 260.1838 14.79491842622027
YAOGAN-29               
1 41038U 15069A   25333.32405269  .00000537  00000+0  73064-4 0  9992
2 41038  98.0232 356.4520 0001072  16.4838 343.6410 14.82859014541000
ASTRO-H (HITOMI)        
1 41337U 16012A   25333.19880505  .00003646  00000+0  21782-3 0  9991
2 41337  31.0000 284.6593 0009553  40.9552 319.1803 15.09220495537038
HXMT (HUIYAN)           
1 42758U 17034A   25333.15367940  .00006235  00000+0  32560-3 0  9996
2 42758  43.0135 215.0121 0033492 317.4268  42.3985 15.16072114467273
CZ-2C R/B               
1 43521U 18054D   25333.02096021  .00093879  00000+0  71182-3 0  9996
2 43521  35.1345 273.6992 0019369   1.1055 358.9717 15.70824810412896
SAOCOM 1A               
1 43641U 18076A   25333.30482072  .00000538  00000+0  74176-4 0  9996
2 43641  97.8849 157.9224 0001572  88.1025 272.0368 14.82153761386490
H-2A R/B                
1 43682U 18084L   25333.28151867  .00018531  00000+0  51283-3 0  9997
2 43682  98.8791 164.5785 0028376  12.5430 347.6509 15.36672394390332
SAOCOM 1B               
1 46265U 20059A   25333.26854703  .00000554  00000+0  76115-4 0  9997
2 46265  97.8844 156.9879 0001358  90.9304 269.2065 14.82162708283879
CSS (TIANHE)            
1 48274U 21035A   25333.25988665  .00015582  00000+0  20255-3 0  9998
2 48274  41.4663  98.4914 0010669 292.2705  67.7001 15.58389811261925
COSMOS 2550             
1 48865U 21056A   25333.29329059 -.00000145  00000+0  14146-5 0  9991
2 48865  67.1432 344.6070 0008449 270.3436  89.6750 15.33827893248064
