CCSDS_OMM_VERS = 2.0
CREATION_DATE  = 
ORIGINATOR     = 

OBJECT_NAME    = SHIJIAN-16 (SJ-16)
OBJECT_ID      = 2013-057A
CENTER_NAME    = EARTH
REF_FRAME      = TEME
TIME_SYSTEM    = UTC
MEAN_ELEMENT_THEORY = SGP/SGP4

EPOCH          = 2025-11-29T07:48:14.876352
MEAN_MOTION    = 14.91930729
ECCENTRICITY   = .0017171
INCLINATION    = 74.9742
RA_OF_ASC_NODE = 15.0357
ARG_OF_PERICENTER = 351.5262
MEAN_ANOMALY   = 8.5633

EPHEMERIS_TYPE = 0
CLASSIFICATION_TYPE = U
NORAD_CAT_ID   = 39358
ELEMENT_SET_NO = 999
REV_AT_EPOCH   = 65653
BSTAR          = .19078183E-3
MEAN_MOTION_DOT = .1907E-4
MEAN_MOTION_DDOT = 0

CCSDS_OMM_VERS = 2.0
CREATION_DATE  = 
ORIGINATOR     = 

OBJECT_NAME    = SL-4 R/B
OBJECT_ID      = 2014-021B
CENTER_NAME    = EARTH
REF_FRAME      = TEME
TIME_SYSTEM    = UTC
MEAN_ELEMENT_THEORY = SGP/SGP4

EPOCH          = 2025-11-29T02:04:51.699936
MEAN_MOTION    = 15.36153931
ECCENTRICITY   = .01030054
INCLINATION    = 51.6069
RA_OF_ASC_NODE = 106.9215
ARG_OF_PERICENTER = 97.1022
MEAN_ANOMALY   = 264.1686

EPHEMERIS_TYPE = 0
CLASSIFICATION_TYPE = U
NORAD_CAT_ID   = 39679
ELEMENT_SET_NO = 999
REV_AT_EPOCH   = 64079
BSTAR          = .32659464E-3
MEAN_MOTION_DOT = .13529E-3
MEAN_MOTION_DDOT = 0

CCSDS_OMM_VERS = 2.0
CREATION_DATE  = 
ORIGINATOR     = 

OBJECT_NAME    = ALOS-2
OBJECT_ID      = 2014-029A
CENTER_NAME    = EARTH
REF_FRAME      = TEME
TIME_SYSTEM    = UTC
MEAN_ELEMENT_THEORY = SGP/SGP4

EPOCH          = 2025-11-29T06:49:03.868320
MEAN_MOTION    = 14.79491842
ECCENTRICITY   = .00013694
INCLINATION    = 97.9230
RA_OF_ASC_NODE = 68.3214
ARG_OF_PERICENTER = 99.9528
MEAN_ANOMALY   = 260.1838

EPHEMERIS_TYPE = 0
CLASSIFICATION_TYPE = U
NORAD_CAT_ID   = 39766
ELEMENT_SET_NO = 999
REV_AT_EPOCH   = 62202
BSTAR          = .25650303E-3
MEAN_MOTION_DOT = .1866E-4
MEAN_MOTION_DDOT = 0

CCSDS_OMM_VERS = 2.0
CREATION_DATE  = 
ORIGINATOR     = 

OBJECT_NAME    = YAOGAN-29
OBJECT_ID      = 2015-069A
CENTER_NAME    = EARTH
REF_FRAME      = TEME
TIME_SYSTEM    = UTC
MEAN_ELEMENT_THEORY = SGP/SGP4

EPOCH          = 2025-11-29T07:46:38.152416
MEAN_MOTION    = 14.82859014
ECCENTRICITY   = .00010728
INCLINATION    = 98.0232
RA_OF_ASC_NODE = 356.4520
ARG_OF_PERICENTER = 16.4838
MEAN_ANOMALY   = 343.6410

EPHEMERIS_TYPE = 0
CLASSIFICATION_TYPE = U
NORAD_CAT_ID   = 41038
ELEMENT_SET_NO = 999
REV_AT_EPOCH   = 54100
BSTAR          = .73063901E-4
MEAN_MOTION_DOT = .537E-5
MEAN_MOTION_DDOT = 0

CCSDS_OMM_VERS = 2.0
CREATION_DATE  = 
ORIGINATOR     = 

OBJECT_NAME    = ASTRO-H (HITOMI)
OBJECT_ID      = 2016-012A
CENTER_NAME    = EARTH
REF_FRAME      = TEME
TIME_SYSTEM    = UTC
MEAN_ELEMENT_THEORY = SGP/SGP4

EPOCH          = 2025-11-29T04:46:16.756320
MEAN_MOTION    = 15.09220495
ECCENTRICITY   = .00095531
INCLINATION    = 31.0000
RA_OF_ASC_NODE = 284.6593
ARG_OF_PERICENTER = 40.9552
MEAN_ANOMALY   = 319.1803

EPHEMERIS_TYPE = 0
CLASSIFICATION_TYPE = U
NORAD_CAT_ID   = 41337
ELEMENT_SET_NO = 999
REV_AT_EPOCH   = 53703
BSTAR          = .21782379E-3
MEAN_MOTION_DOT = .3646E-4
MEAN_MOTION_DDOT = 0

CCSDS_OMM_VERS = 2.0
CREATION_DATE  = 
ORIGINATOR     = 

OBJECT_NAME    = HXMT (HUIYAN)
OBJECT_ID      = 2017-034A
CENTER_NAME    = EARTH
REF_FRAME      = TEME
TIME_SYSTEM    = UTC
MEAN_ELEMENT_THEORY = SGP/SGP4

EPOCH          = 2025-11-29T03:41:17.900160
MEAN_MOTION    = 15.16072114
ECCENTRICITY   = .00334923
INCLINATION    = 43.0135
RA_OF_ASC_NODE = 215.0121
ARG_OF_PERICENTER = 317.4268
MEAN_ANOMALY   = 42.3985

EPHEMERIS_TYPE = 0
CLASSIFICATION_TYPE = U
NORAD_CAT_ID   = 42758
ELEMENT_SET_NO = 999
REV_AT_EPOCH   = 46727
BSTAR          = .3256006E-3
MEAN_MOTION_DOT = .6235E-4
MEAN_MOTION_DDOT = 0

CCSDS_OMM_VERS = 2.0
CREATION_DATE  = 
ORIGINATOR     = 

OBJECT_NAME    = CZ-2C R/B
OBJECT_ID      = 2018-054D
CENTER_NAME    = EARTH
REF_FRAME      = TEME
TIME_SYSTEM    = UTC
MEAN_ELEMENT_THEORY = SGP/SGP4

EPOCH          = 2025-11-29T00:30:10.962144
MEAN_MOTION    = 15.70824810
ECCENTRICITY   = .0019369
INCLINATION    = 35.1345
RA_OF_ASC_NODE = 273.6992
ARG_OF_PERICENTER = 1.1055
MEAN_ANOMALY   = 358.9717

EPHEMERIS_TYPE = 0
CLASSIFICATION_TYPE = U
NORAD_CAT_ID   = 43521
ELEMENT_SET_NO = 999
REV_AT_EPOCH   = 41289
BSTAR          = .71181885E-3
MEAN_MOTION_DOT = .93879E-3
MEAN_MOTION_DDOT = 0

CCSDS_OMM_VERS = 2.0
CREATION_DATE  = 
ORIGINATOR     = 

OBJECT_NAME    = SAOCOM 1A
OBJECT_ID      = 2018-076A
CENTER_NAME    = EARTH
REF_FRAME      = TEME
TIME_SYSTEM    = UTC
MEAN_ELEMENT_THEORY = SGP/SGP4

EPOCH          = 2025-11-29T07:18:56.510208
MEAN_MOTION    = 14.82153761
ECCENTRICITY   = .0001572
INCLINATION    = 97.8849
RA_OF_ASC_NODE = 157.9224
ARG_OF_PERICENTER = 88.1025
MEAN_ANOMALY   = 272.0368

EPHEMERIS_TYPE = 0
CLASSIFICATION_TYPE = U
NORAD_CAT_ID   = 43641
ELEMENT_SET_NO = 999
REV_AT_EPOCH   = 38649
BSTAR          = .7417562E-4
MEAN_MOTION_DOT = .538E-5
MEAN_MOTION_DDOT = 0

CCSDS_OMM_VERS = 2.0
CREATION_DATE  = 
ORIGINATOR     = 

OBJECT_NAME    = H-2A R/B
OBJECT_ID      = 2018-084L
CENTER_NAME    = EARTH
REF_FRAME      = TEME
TIME_SYSTEM    = UTC
MEAN_ELEMENT_THEORY = SGP/SGP4

EPOCH          = 2025-11-29T06:45:23.213088
MEAN_MOTION    = 15.36672394
ECCENTRICITY   = .00283765
INCLINATION    = 98.8791
RA_OF_ASC_NODE = 164.5785
ARG_OF_PERICENTER = 12.5430
MEAN_ANOMALY   = 347.6509

EPHEMERIS_TYPE = 0
CLASSIFICATION_TYPE = U
NORAD_CAT_ID   = 43682
ELEMENT_SET_NO = 999
REV_AT_EPOCH   = 39033
BSTAR          = .51283171E-3
MEAN_MOTION_DOT = .18531E-3
MEAN_MOTION_DDOT = 0

CCSDS_OMM_VERS = 2.0
CREATION_DATE  = 
ORIGINATOR     = 

OBJECT_NAME    = SAOCOM 1B
OBJECT_ID      = 2020-059A
CENTER_NAME    = EARTH
REF_FRAME      = TEME
TIME_SYSTEM    = UTC
MEAN_ELEMENT_THEORY = SGP/SGP4

EPOCH          = 2025-11-29T06:26:42.463392
MEAN_MOTION    = 14.82162708
ECCENTRICITY   = .0001358
INCLINATION    = 97.8844
RA_OF_ASC_NODE = 156.9879
ARG_OF_PERICENTER = 90.9304
MEAN_ANOMALY   = 269.2065

EPHEMERIS_TYPE = 0
CLASSIFICATION_TYPE = U
NORAD_CAT_ID   = 46265
ELEMENT_SET_NO = 999
REV_AT_EPOCH   = 28387
BSTAR          = .76114658E-4
MEAN_MOTION_DOT = .554E-5
MEAN_MOTION_DDOT = 0

CCSDS_OMM_VERS = 2.0
CREATION_DATE  = 
ORIGINATOR     = 

OBJECT_NAME    = CSS (TIANHE)
OBJECT_ID      = 2021-035A
CENTER_NAME    = EARTH
REF_FRAME      = TEME
TIME_SYSTEM    = UTC
MEAN_ELEMENT_THEORY = SGP/SGP4

EPOCH          = 2025-11-29T06:14:14.206560
MEAN_MOTION    = 15.58389811
ECCENTRICITY   = .00106693
INCLINATION    = 41.4663
RA_OF_ASC_NODE = 98.4914
ARG_OF_PERICENTER = 292.2705
MEAN_ANOMALY   = 67.7001

EPHEMERIS_TYPE = 0
CLASSIFICATION_TYPE = U
NORAD_CAT_ID   = 48274
ELEMENT_SET_NO = 999
REV_AT_EPOCH   = 26192
BSTAR          = .20254705E-3
MEAN_MOTION_DOT = .15582E-3
MEAN_MOTION_DDOT = 0

CCSDS_OMM_VERS = 2.0
CREATION_DATE  = 
ORIGINATOR     = 

OBJECT_NAME    = COSMOS 2550
OBJECT_ID      = 2021-056A
CENTER_NAME    = EARTH
REF_FRAME      = TEME
TIME_SYSTEM    = UTC
MEAN_ELEMENT_THEORY = SGP/SGP4

EPOCH          = 2025-11-29T07:02:20.306976
MEAN_MOTION    = 15.33827893
ECCENTRICITY   = .00084492
INCLINATION    = 67.1432
RA_OF_ASC_NODE = 344.6070
ARG_OF_PERICENTER = 270.3436
MEAN_ANOMALY   = 89.6750

EPHEMERIS_TYPE = 0
CLASSIFICATION_TYPE = U
NORAD_CAT_ID   = 48865
ELEMENT_SET_NO = 999
REV_AT_EPOCH   = 24806
BSTAR          = .141464E-5
MEAN_MOTION_DOT = -.145E-5
MEAN_MOTION_DDOT = 0

